OBJECT_NAME,OBJECT_ID,EPOCH,MEAN_MOTION,ECCENTRICITY,INCLINATION,RA_OF_ASC_NODE,ARG_OF_PERICENTER,MEAN_ANOMALY,EPHEMERIS_TYPE,CLASSIFICATION_TYPE,NORAD_CAT_ID,ELEMENT_SET_NO,REV_AT_EPOCH,BSTAR,MEAN_MOTION_DOT,MEAN_MOTION_DDOT
NOAA 15,1998-030A,2021-10-02T02:02:42.009216,14.26060804,.0009804,98.6753,302.6195,335.9957,24.0765,0,U,25338,999,21644,.48815E-4,.73E-6,0
DMSP 5D-3 F15 (USA 147),1999-067A,2021-10-01T21:02:43.802304,14.16471321,.0009727,99.0283,257.3862,197.0606,220.0600,0,U,25991,999,12716,.48365E-4,.5E-6,0
METEOSAT-8 (MSG-1),2002-040B,2021-10-01T14:48:41.742720,1.00268922,.0001406,7.5604,51.9417,180.0322,42.2252,0,U,27509,999,7001,0,.139E-5,0
DMSP 5D-3 F16 (USA 172),2003-048A,2021-10-02T02:49:32.159712,14.13637444,.000706,98.9646,259.9419,336.0036,102.0449,0,U,28054,999,92653,.35481E-4,.22E-6,0
NOAA 18,2005-018A,2021-10-02T01:03:35.251200,14.12642709,.0013818,98.9840,340.2812,345.3763,14.7007,0,U,28654,999,84358,.89086E-4,.12E-5,0
METEOSAT-9 (MSG-2),2005-049B,2021-10-01T17:11:51.969408,1.00273816,.0000624,5.4384,67.8281,39.1034,165.0226,0,U,28912,999,5779,0,.18E-6,0
FORMOSAT-3 FM6,2006-011A,2021-10-01T20:57:39.950784,14.28840377,.0051645,71.9779,227.7134,326.7400,33.0494,0,U,29047,999,80862,.7877E-4,.16E-5,0
FORMOSAT-3 FM1,2006-011B,2021-10-01T21:41:18.365856,14.28805476,.004543,71.9653,138.0178,287.1781,72.4384,0,U,29048,999,81110,.64361E-4,.122E-5,0
FORMOSAT-3 FM5,2006-011C,2021-10-02T02:08:19.453920,14.28887870,.0036777,72.0201,311.9711,307.8172,51.9637,0,U,29049,999,80694,.7081E-4,.139E-5,0
FORMOSAT-3 FM3,2006-011D,2021-10-01T18:53:40.480512,14.59124803,.0049991,72.0167,50.4310,190.2227,169.7914,0,U,29050,999,82505,.10233E-3,.441E-5,0
FORMOSAT-3 FM4,2006-011E,2021-10-01T20:49:50.371968,14.28919228,.0068604,72.0053,213.5564,191.3348,168.6248,0,U,29051,999,80947,.533E-4,.97E-6,0
FORMOSAT-3 FM2,2006-011F,2021-10-02T01:01:25.763520,14.29029218,.0042422,72.0326,288.8175,268.2846,91.3432,0,U,29052,999,80788,.67156E-4,.13E-5,0
EWS-G1 (GOES 13),2006-018A,2021-10-01T21:42:20.844288,1.00269287,.0006944,0.1393,116.6148,96.1305,185.4814,0,U,29155,999,2613,0,.32E-6,0
METOP-A,2006-044A,2021-10-02T02:34:54.543936,14.21511787,.0001061,98.4628,310.0692,65.5911,354.4975,0,U,29499,999,77589,.31018E-4,.26E-6,0
DMSP 5D-3 F17 (USA 191),2006-050A,2021-10-02T00:36:43.660512,14.14045250,.0008702,98.7820,289.7697,277.4247,82.5937,0,U,29522,999,76937,.56218E-4,.63E-6,0
FENGYUN 3A,2008-026A,2021-10-01T21:56:17.298240,14.18669656,.0009716,98.4634,243.6733,55.1800,305.0289,0,U,32958,999,69167,.33586E-4,.28E-6,0
FENGYUN 2E,2008-066A,2021-10-02T00:29:13.813728,1.00269495,.0002713,5.3381,66.6758,334.5652,63.5869,0,U,33463,999,4685,0,-.2E-5,0
NOAA 19,2009-005A,2021-10-02T02:07:22.423008,14.12498280,.0013792,99.1790,298.4123,189.5740,170.5170,0,U,33591,999,65197,.63959E-4,.71E-6,0
GOES 14,2009-033A,2021-10-01T15:23:10.993344,1.00272005,.0015625,0.3536,281.0185,293.0852,283.0748,0,U,35491,999,4487,0,-.97E-6,0
METEOR-M 1,2009-049A,2021-10-01T22:28:38.671680,14.22285292,.0001179,98.4920,249.2820,252.7711,107.3338,0,U,35865,999,62494,.35832E-4,.38E-6,0
DMSP 5D-3 F18 (USA 210),2009-057A,2021-10-02T02:19:20.940096,14.13400117,.0012232,98.6916,256.3158,101.3393,258.9155,0,U,35951,999,61662,.82311E-4,.112E-5,0
GOES 15,2010-008A,2021-10-01T16:00:44.821152,1.00261507,.0000884,0.3832,275.7293,236.4447,330.9387,0,U,36411,999,4243,0,.5E-6,0
COMS 1,2010-032A,2021-10-01T19:31:09.000768,1.00272799,.0000766,0.4799,96.0434,95.7385,239.9506,0,U,36744,999,3384,0,-.346E-5,0
FENGYUN 3B,2010-059A,2021-10-02T03:47:46.672512,14.16000164,.0017409,99.0869,271.3408,15.0487,345.1201,0,U,37214,999,56443,.30422E-4,.14E-6,0
SUOMI NPP,2011-061A,2021-10-02T01:49:27.662304,14.19544716,.0001212,98.7429,212.3511,63.4562,306.8840,0,U,37849,999,51453,.37088E-4,.34E-6,0
FENGYUN 2F,2012-002A,2021-10-01T21:09:52.018848,1.00282555,.0002134,3.1630,81.4849,12.3340,346.4311,0,U,38049,999,3564,0,-.358E-5,0
METEOSAT-10 (MSG-3),2012-035B,2021-10-01T18:56:59.305056,1.00277120,.000172,1.2465,20.9380,201.1776,82.2064,0,U,38552,999,3361,0,.6E-6,0
METOP-B,2012-049A,2021-10-02T02:09:28.262880,14.21494487,.0002161,98.7041,333.7614,81.5589,335.9162,0,U,38771,999,46902,.27921E-4,.17E-6,0
FENGYUN 3C,2013-052A,2021-10-02T03:01:19.545024,14.15879402,.0010192,98.4890,310.9029,303.0711,56.9492,0,U,39260,999,41536,.22339E-4,.3E-7,0
METEOR-M 2,2014-037A,2021-10-02T01:32:08.621952,14.20688700,.0005793,98.4547,299.4017,4.8455,355.2775,0,U,40069,999,37517,.20352E-5,-.37E-6,0
HIMAWARI-8,2014-060A,2021-10-01T19:34:39.999072,1.00271494,.0001314,0.0149,193.9477,40.7295,210.4284,0,U,40267,999,2551,0,-.278E-5,0
