NOAA 15                 
1 25338U 98030A   21275.08520844  .00000073  00000-0  48815-4 0  9999
2 25338  98.6753 302.6195 0009804 335.9957  24.0765 14.26060804216441
DMSP 5D-3 F15 (USA 147) 
1 25991U 99067A   21274.87689586  .00000050  00000-0  48365-4 0  9995
2 25991  99.0283 257.3862 0009727 197.0606 220.0600 14.16471321127163
METEOSAT-8 (MSG-1)      
1 27509U 02040B   21274.61714980  .00000139  00000-0  00000-0 0  9994
2 27509   7.5604  51.9417 0001406 180.0322  42.2252  1.00268922 70016
DMSP 5D-3 F16 (USA 172) 
1 28054U 03048A   21275.11773333  .00000022  00000-0  35481-4 0  9998
2 28054  98.9646 259.9419 0007060 336.0036 102.0449 14.13637444926538
NOAA 18                 
1 28654U 05018A   21275.04415800  .00000120  00000-0  89086-4 0  9996
2 28654  98.9840 340.2812 0013818 345.3763  14.7007 14.12642709843580
METEOSAT-9 (MSG-2)      
1 28912U 05049B   21274.71657372  .00000018  00000-0  00000-0 0  9993
2 28912   5.4384  67.8281 0000624  39.1034 165.0226  1.00273816 57790
FORMOSAT-3 FM6          
1 29047U 06011A   21274.87337906  .00000160  00000-0  78770-4 0  9999
2 29047  71.9779 227.7134 0051645 326.7400  33.0494 14.28840377808624
FORMOSAT-3 FM1          
1 29048U 06011B   21274.90368479  .00000122  00000-0  64361-4 0  9992
2 29048  71.9653 138.0178 0045430 287.1781  72.4384 14.28805476811108
FORMOSAT-3 FM5          
1 29049U 06011C   21275.08911405  .00000139  00000-0  70810-4 0  9990
2 29049  72.0201 311.9711 0036777 307.8172  51.9637 14.28887870806940
FORMOSAT-3 FM3          
1 29050U 06011D   21274.78727408  .00000441  00000-0  10233-3 0  9994
2 29050  72.0167  50.4310 0049991 190.2227 169.7914 14.59124803825053
FORMOSAT-3 FM4          
1 29051U 06011E   21274.86794412  .00000097  00000-0  53300-4 0  9993
2 29051  72.0053 213.5564 0068604 191.3348 168.6248 14.28919228809474
FORMOSAT-3 FM2          
1 29052U 06011F   21275.04265930  .00000130  00000-0  67156-4 0  9995
2 29052  72.0326 288.8175 0042422 268.2846  91.3432 14.29029218807880
EWS-G1 (GOES 13)        
1 29155U 06018A   21274.90440792  .00000032  00000-0  00000-0 0  9993
2 29155   0.1393 116.6148 0006944  96.1305 185.4814  1.00269287 26132
METOP-A                 
1 29499U 06044A   21275.10757574  .00000026  00000-0  31018-4 0  9995
2 29499  98.4628 310.0692 0001061  65.5911 354.4975 14.21511787775898
DMSP 5D-3 F17 (USA 191) 
1 29522U 06050A   21275.02550533  .00000063  00000-0  56218-4 0  9996
2 29522  98.7820 289.7697 0008702 277.4247  82.5937 14.14045250769376
FENGYUN 3A              
1 32958U 08026A   21274.91408910  .00000028  00000-0  33586-4 0  9990
2 32958  98.4634 243.6733 0009716  55.1800 305.0289 14.18669656691671
FENGYUN 2E              
1 33463U 08066A   21275.02029877 -.00000200  00000-0  00000+0 0  9993
2 33463   5.3381  66.6758 0002713 334.5652  63.5869  1.00269495 46856
NOAA 19                 
1 33591U 09005A   21275.08845397  .00000071  00000-0  63959-4 0  9990
2 33591  99.1790 298.4123 0013792 189.5740 170.5170 14.12498280651971
GOES 14                 
1 35491U 09033A   21274.64109946 -.00000097  00000-0  00000-0 0  9999
2 35491   0.3536 281.0185 0015625 293.0852 283.0748  1.00272005 44876
METEOR-M 1              
1 35865U 09049A   21274.93655870  .00000038  00000-0  35832-4 0  9994
2 35865  98.4920 249.2820 0001179 252.7711 107.3338 14.22285292624948
DMSP 5D-3 F18 (USA 210) 
1 35951U 09057A   21275.09677014  .00000112  00000-0  82311-4 0  9998
2 35951  98.6916 256.3158 0012232 101.3393 258.9155 14.13400117616622
GOES 15                 
1 36411U 10008A   21274.66718543  .00000050  00000-0  00000-0 0  9995
2 36411   0.3832 275.7293 0000884 236.4447 330.9387  1.00261507 42436
COMS 1                  
1 36744U 10032A   21274.81329862 -.00000346  00000-0  00000-0 0  9999
2 36744   0.4799  96.0434 0000766  95.7385 239.9506  1.00272799 33846
FENGYUN 3B              
1 37214U 10059A   21275.15817908  .00000014  00000-0  30422-4 0  9998
2 37214  99.0869 271.3408 0017409  15.0487 345.1201 14.16000164564432
SUOMI NPP               
1 37849U 11061A   21275.07601461  .00000034  00000-0  37088-4 0  9999
2 37849  98.7429 212.3511 0001212  63.4562 306.8840 14.19544716514538
FENGYUN 2F              
1 38049U 12002A   21274.88185207 -.00000358  00000-0  00000-0 0  9991
2 38049   3.1630  81.4849 0002134  12.3340 346.4311  1.00282555 35644
METEOSAT-10 (MSG-3)     
1 38552U 12035B   21274.78957529  .00000060  00000-0  00000-0 0  9998
2 38552   1.2465  20.9380 0001720 201.1776  82.2064  1.00277120 33614
METOP-B                 
1 38771U 12049A   21275.08991045  .00000017  00000-0  27921-4 0  9998
2 38771  98.7041 333.7614 0002161  81.5589 335.9162 14.21494487469024
FENGYUN 3C              
1 39260U 13052A   21275.12592066  .00000003  00000-0  22339-4 0  9995
2 39260  98.4890 310.9029 0010192 303.0711  56.9492 14.15879402415367
METEOR-M 2              
1 40069U 14037A   21275.06398868 -.00000037  00000-0  20352-5 0  9997
2 40069  98.4547 299.4017 0005793   4.8455 355.2775 14.20688700375173
HIMAWARI-8              
1 40267U 14060A   21274.81574073 -.00000278  00000-0  00000-0 0  9999
2 40267   0.0149 193.9477 0001314  40.7295 210.4284  1.00271494 25513
